GLOBALSTAR M057 [-]     
1 25943U 99058A   24079.47729901 -.00000077  00000+0  14068-3 0  9991
2 25943  51.9972 198.6160 0003162 144.8509 215.2549 12.24782003111215
GLOBALSTAR M059 [-]     
1 25944U 99058B   24079.22724865 -.00000145  00000+0 -73445-3 0  9990
2 25944  52.0053 357.9634 0000782  96.8856  69.5766 11.99962529519420
GLOBALSTAR M056 [-]     
1 25945U 99058C   24080.11620751 -.00000031  00000+0  66416-3 0  9993
2 25945  52.0000   9.1805 0001322  12.0996  90.5752 12.04772133107941
GLOBALSTAR M031 [-]     
1 25946U 99058D   24079.96151890 -.00000112  00000+0 -21715-3 0  9992
2 25946  51.9954 289.1136 0001405  12.2784 135.0001 12.16004942109521
GLOBALSTAR M039 [-]     
1 25961U 99062A   24080.37625751 -.00000100  00000+0  23814-4 0  9992
2 25961  51.9832 210.8872 0003376  72.7756 287.3479 12.62284838122935
GLOBALSTAR M034 [-]     
1 25962U 99062B   24080.10906784 -.00000052  00000+0  45553-3 0  9991
2 25962  51.9853 111.7043 0013928 262.3375 111.4885 11.79425408 84792
GLOBALSTAR M029 [-]     
1 25963U 99062C   24079.95774358 -.00000053  00000+0  41230-3 0  9992
2 25963  51.9784 244.4132 0001776 317.2001 220.8204 11.99875350114648
GLOBALSTAR M061 [-]     
1 25964U 99062D   24080.52730785 -.00000047  00000+0  53733-3 0  9998
2 25964  51.9785 288.6436 0005886 184.0783 189.9230 11.76758880 68061
